{"type": "Feature", "properties": {"name": "Lahore District", "country": "Pakistan", "level": "ADM2", "source": "geoBoundaries gbOpen PAK ADM2 (simplified), release 9469f09", "license": "Public Domain", "yearRepresented": 2019, "url": "https://www.geoboundaries.org/"}, "geometry": {"type": "Polygon", "coordinates": [[[73.99826, 31.28096], [74.0102, 31.28096], [74.04199, 31.26209], [74.07377, 31.25983], [74.13116, 31.25907], [74.1497, 31.25002], [74.15942, 31.23794], [74.20974, 31.23265], [74.24418, 31.23114], [74.26802, 31.23492], [74.28302, 31.24171], [74.29627, 31.25454], [74.32099, 31.25983], [74.34395, 31.25983], [74.41956, 31.26897], [74.42803, 31.28878], [74.43142, 31.30133], [74.44725, 31.30954], [74.46815, 31.31243], [74.48454, 31.31243], [74.52544, 31.32294], [74.52646, 31.36359], [74.54461, 31.38812], [74.55973, 31.40102], [74.58845, 31.41909], [74.60509, 31.46424], [74.60357, 31.49003], [74.59601, 31.5055], [74.57787, 31.51581], [74.57182, 31.53514], [74.5688, 31.55576], [74.5567, 31.58023], [74.55519, 31.60728], [74.54914, 31.63946], [74.53402, 31.65105], [74.5133, 31.68884], [74.49167, 31.68787], [74.46408, 31.67613], [74.45856, 31.6503], [74.442, 31.6503], [74.42683, 31.63151], [74.402, 31.63855], [74.38682, 31.65147], [74.35923, 31.64325], [74.3344, 31.62916], [74.26818, 31.61741], [74.25439, 31.60331], [74.25025, 31.57981], [74.23093, 31.56923], [74.22404, 31.54807], [74.22404, 31.53279], [74.21714, 31.51162], [74.20748, 31.50339], [74.19644, 31.49868], [74.18955, 31.48339], [74.18817, 31.46221], [74.18403, 31.45162], [74.17023, 31.44926], [74.16471, 31.43632], [74.15506, 31.42572], [74.11505, 31.42219], [74.10263, 31.40571], [74.08608, 31.40453], [74.07366, 31.39393], [74.0709, 31.37862], [74.06401, 31.3586], [74.04607, 31.35624], [74.0309, 31.35624], [73.99365, 31.30557], [73.99826, 31.28096]]]}}